[{"OBJECT_NAME":"ONEWEB-0170","OBJECT_ID":"2021-025AB","EPOCH":"2026-01-13T05:05:04.064640","MEAN_MOTION":13.13468717,"ECCENTRICITY":0.00016475,"INCLINATION":87.8998,"RA_OF_ASC_NODE":351.0225,"ARG_OF_PERICENTER":68.0721,"MEAN_ANOMALY":292.0583,"EPHEMERIS_TYPE":0,"CLASSIFICATION_TYPE":"U","NORAD_CAT_ID":48067,"ELEMENT_SET_NO":999,"REV_AT_EPOCH":23320,"BSTAR":0.0001630111,"MEAN_MOTION_DOT":7.2e-7,"MEAN_MOTION_DDOT":0},{"OBJECT_NAME":"ONEWEB-0168","OBJECT_ID":"2021-025AC","EPOCH":"2026-01-13T04:43:09.294240","MEAN_MOTION":13.13469918,"ECCENTRICITY":0.00016999,"INCLINATION":87.9005,"RA_OF_ASC_NODE":351.0129,"ARG_OF_PERICENTER":89.9459,"MEAN_ANOMALY":270.1865,"EPHEMERIS_TYPE":0,"CLASSIFICATION_TYPE":"U","NORAD_CAT_ID":48068,"ELEMENT_SET_NO":999,"REV_AT_EPOCH":23321,"BSTAR":-0.00070470098,"MEAN_MOTION_DOT":-2.45e-6,"MEAN_MOTION_DDOT":0},{"OBJECT_NAME":"ONEWEB-0173","OBJECT_ID":"2021-025AD","EPOCH":"2026-01-13T04:30:57.786048","MEAN_MOTION":13.13469651,"ECCENTRICITY":0.00014183,"INCLINATION":87.9004,"RA_OF_ASC_NODE":351.022,"ARG_OF_PERICENTER":93.5755,"MEAN_ANOMALY":266.5536,"EPHEMERIS_TYPE":0,"CLASSIFICATION_TYPE":"U","NORAD_CAT_ID":48069,"ELEMENT_SET_NO":999,"REV_AT_EPOCH":23345,"BSTAR":-0.00098513324,"MEAN_MOTION_DOT":-3.47e-6,"MEAN_MOTION_DDOT":0},{"OBJECT_NAME":"ONEWEB-0171","OBJECT_ID":"2021-025AE","EPOCH":"2026-01-13T05:24:35.880192","MEAN_MOTION":13.13470718,"ECCENTRICITY":0.00016418,"INCLINATION":87.8994,"RA_OF_ASC_NODE":351.0328,"ARG_OF_PERICENTER":81.9566,"MEAN_ANOMALY":278.175,"EPHEMERIS_TYPE":0,"CLASSIFICATION_TYPE":"U","NORAD_CAT_ID":48070,"ELEMENT_SET_NO":999,"REV_AT_EPOCH":23327,"BSTAR":0.0010712008,"MEAN_MOTION_DOT":4.04e-6,"MEAN_MOTION_DDOT":0},{"OBJECT_NAME":"ONEWEB-0172","OBJECT_ID":"2021-025AF","EPOCH":"2026-01-13T04:55:20.623584","MEAN_MOTION":13.13470119,"ECCENTRICITY":0.00015891,"INCLINATION":87.8998,"RA_OF_ASC_NODE":351.0226,"ARG_OF_PERICENTER":84.4491,"MEAN_ANOMALY":275.682,"EPHEMERIS_TYPE":0,"CLASSIFICATION_TYPE":"U","NORAD_CAT_ID":48071,"ELEMENT_SET_NO":999,"REV_AT_EPOCH":23416,"BSTAR":-0.00024228807,"MEAN_MOTION_DOT":-7.6e-7,"MEAN_MOTION_DDOT":0},{"OBJECT_NAME":"ONEWEB-0174","OBJECT_ID":"2021-025AG","EPOCH":"2026-01-13T04:28:31.452960","MEAN_MOTION":13.13469886,"ECCENTRICITY":0.00018404,"INCLINATION":87.8993,"RA_OF_ASC_NODE":351.028,"ARG_OF_PERICENTER":88.7615,"MEAN_ANOMALY":271.3725,"EPHEMERIS_TYPE":0,"CLASSIFICATION_TYPE":"U","NORAD_CAT_ID":48072,"ELEMENT_SET_NO":999,"REV_AT_EPOCH":23348,"BSTAR":-0.0008378331,"MEAN_MOTION_DOT":-2.93e-6,"MEAN_MOTION_DDOT":0},{"OBJECT_NAME":"ONEWEB-0175","OBJECT_ID":"2021-025AH","EPOCH":"2026-01-13T05:12:24.855840","MEAN_MOTION":13.13469806,"ECCENTRICITY":0.00014957,"INCLINATION":87.9003,"RA_OF_ASC_NODE":350.9935,"ARG_OF_PERICENTER":75.2571,"MEAN_ANOMALY":284.8724,"EPHEMERIS_TYPE":0,"CLASSIFICATION_TYPE":"U","NORAD_CAT_ID":48073,"ELEMENT_SET_NO":999,"REV_AT_EPOCH":23314,"BSTAR":0.00051508347,"MEAN_MOTION_DOT":2.01e-6,"MEAN_MOTION_DDOT":0},{"OBJECT_NAME":"ONEWEB-0177","OBJECT_ID":"2021-025AJ","EPOCH":"2026-01-13T05:29:28.850496","MEAN_MOTION":13.13469688,"ECCENTRICITY":0.00016968,"INCLINATION":87.9004,"RA_OF_ASC_NODE":351.0111,"ARG_OF_PERICENTER":91.0336,"MEAN_ANOMALY":269.0987,"EPHEMERIS_TYPE":0,"CLASSIFICATION_TYPE":"U","NORAD_CAT_ID":48074,"ELEMENT_SET_NO":999,"REV_AT_EPOCH":23333,"BSTAR":0.00063080929,"MEAN_MOTION_DOT":2.43e-6,"MEAN_MOTION_DDOT":0},{"OBJECT_NAME":"ONEWEB-0178","OBJECT_ID":"2021-025AK","EPOCH":"2026-01-13T04:06:47.949984","MEAN_MOTION":13.13468401,"ECCENTRICITY":0.00014596,"INCLINATION":87.8988,"RA_OF_ASC_NODE":351.0599,"ARG_OF_PERICENTER":85.0379,"MEAN_ANOMALY":275.0917,"EPHEMERIS_TYPE":0,"CLASSIFICATION_TYPE":"U","NORAD_CAT_ID":48075,"ELEMENT_SET_NO":999,"REV_AT_EPOCH":23337,"BSTAR":5.46288e-7,"MEAN_MOTION_DOT":1.3e-7,"MEAN_MOTION_DDOT":0},{"OBJECT_NAME":"ONEWEB-0108","OBJECT_ID":"2021-025AL","EPOCH":"2026-01-13T04:57:46.830528","MEAN_MOTION":13.13470821,"ECCENTRICITY":0.00019618,"INCLINATION":87.9,"RA_OF_ASC_NODE":351.0047,"ARG_OF_PERICENTER":82.9392,"MEAN_ANOMALY":277.1961,"EPHEMERIS_TYPE":0,"CLASSIFICATION_TYPE":"U","NORAD_CAT_ID":48076,"ELEMENT_SET_NO":999,"REV_AT_EPOCH":23330,"BSTAR":-0.00032703059,"MEAN_MOTION_DOT":-1.07e-6,"MEAN_MOTION_DDOT":0},{"OBJECT_NAME":"ONEWEB-0169","OBJECT_ID":"2021-025AM","EPOCH":"2026-01-13T03:54:24.253344","MEAN_MOTION":13.13468418,"ECCENTRICITY":0.00019712,"INCLINATION":87.8999,"RA_OF_ASC_NODE":351.0329,"ARG_OF_PERICENTER":83.9209,"MEAN_ANOMALY":276.2145,"EPHEMERIS_TYPE":0,"CLASSIFICATION_TYPE":"U","NORAD_CAT_ID":48077,"ELEMENT_SET_NO":999,"REV_AT_EPOCH":23195,"BSTAR":0.00043994471,"MEAN_MOTION_DOT":1.73e-6,"MEAN_MOTION_DDOT":0},{"OBJECT_NAME":"ONEWEB-0176","OBJECT_ID":"2021-031A","EPOCH":"2026-01-13T03:02:58.978464","MEAN_MOTION":13.14503922,"ECCENTRICITY":0.00016199,"INCLINATION":87.9021,"RA_OF_ASC_NODE":320.6002,"ARG_OF_PERICENTER":78.0366,"MEAN_ANOMALY":282.0945,"EPHEMERIS_TYPE":0,"CLASSIFICATION_TYPE":"U","NORAD_CAT_ID":48210,"ELEMENT_SET_NO":999,"REV_AT_EPOCH":22794,"BSTAR":1.706633e-6,"MEAN_MOTION_DOT":1.3e-7,"MEAN_MOTION_DDOT":0},{"OBJECT_NAME":"ONEWEB-0184","OBJECT_ID":"2021-031B","EPOCH":"2026-01-13T06:03:22.324608","MEAN_MOTION":13.14503104,"ECCENTRICITY":0.00010879,"INCLINATION":87.9038,"RA_OF_ASC_NODE":320.5595,"ARG_OF_PERICENTER":56.4328,"MEAN_ANOMALY":303.6906,"EPHEMERIS_TYPE":0,"CLASSIFICATION_TYPE":"U","NORAD_CAT_ID":48211,"ELEMENT_SET_NO":999,"REV_AT_EPOCH":22793,"BSTAR":-0.00047663047,"MEAN_MOTION_DOT":-1.64e-6,"MEAN_MOTION_DDOT":0},{"OBJECT_NAME":"ONEWEB-0179","OBJECT_ID":"2021-031C","EPOCH":"2026-01-13T01:41:53.365056","MEAN_MOTION":13.14504489,"ECCENTRICITY":0.00017496,"INCLINATION":87.9027,"RA_OF_ASC_NODE":320.6017,"ARG_OF_PERICENTER":87.3001,"MEAN_ANOMALY":272.8329,"EPHEMERIS_TYPE":0,"CLASSIFICATION_TYPE":"U","NORAD_CAT_ID":48212,"ELEMENT_SET_NO":999,"REV_AT_EPOCH":22795,"BSTAR":0.00035619323,"MEAN_MOTION_DOT":1.45e-6,"MEAN_MOTION_DDOT":0},{"OBJECT_NAME":"ONEWEB-0180","OBJECT_ID":"2021-031D","EPOCH":"2026-01-13T06:07:56.597088","MEAN_MOTION":13.14502946,"ECCENTRICITY":0.00015059,"INCLINATION":87.9034,"RA_OF_ASC_NODE":320.5642,"ARG_OF_PERICENTER":85.6174,"MEAN_ANOMALY":274.5128,"EPHEMERIS_TYPE":0,"CLASSIFICATION_TYPE":"U","NORAD_CAT_ID":48213,"ELEMENT_SET_NO":999,"REV_AT_EPOCH":22786,"BSTAR":-0.00046192734,"MEAN_MOTION_DOT":-1.58e-6,"MEAN_MOTION_DDOT":0},{"OBJECT_NAME":"ONEWEB-0218","OBJECT_ID":"2021-031E","EPOCH":"2026-01-13T03:00:39.440736","MEAN_MOTION":13.14502308,"ECCENTRICITY":8.678e-5,"INCLINATION":87.9028,"RA_OF_ASC_NODE":320.5906,"ARG_OF_PERICENTER":69.4449,"MEAN_ANOMALY":290.6773,"EPHEMERIS_TYPE":0,"CLASSIFICATION_TYPE":"U","NORAD_CAT_ID":48214,"ELEMENT_SET_NO":999,"REV_AT_EPOCH":22800,"BSTAR":-0.00070800804,"MEAN_MOTION_DOT":-2.5e-6,"MEAN_MOTION_DDOT":0}]
