ONEWEB-0170             
1 48067U 21025AB  26013.21185260  .00000072  00000+0  16301-3 0  9994
2 48067  87.8998 351.0225 0001647  68.0721 292.0583 13.13468717233206
ONEWEB-0168             
1 48068U 21025AC  26013.19663535 -.00000245  00000+0 -70470-3 0  9999
2 48068  87.9005 351.0129 0001699  89.9459 270.1865 13.13469918233212
ONEWEB-0173             
1 48069U 21025AD  26013.18816882 -.00000347  00000+0 -98513-3 0  9995
2 48069  87.9004 351.0220 0001418  93.5755 266.5536 13.13469651233457
ONEWEB-0171             
1 48070U 21025AE  26013.22541528  .00000404  00000+0  10712-2 0  9990
2 48070  87.8994 351.0328 0001641  81.9566 278.1750 13.13470718233277
ONEWEB-0172             
1 48071U 21025AF  26013.20509981 -.00000076  00000+0 -24229-3 0  9992
2 48071  87.8998 351.0226 0001589  84.4491 275.6820 13.13470119234169
ONEWEB-0174             
1 48072U 21025AG  26013.18647515 -.00000293  00000+0 -83783-3 0  9997
2 48072  87.8993 351.0280 0001840  88.7615 271.3725 13.13469886233480
ONEWEB-0175             
1 48073U 21025AH  26013.21695435  .00000201  00000+0  51508-3 0  9993
2 48073  87.9003 350.9935 0001495  75.2571 284.8724 13.13469806233140
ONEWEB-0177             
1 48074U 21025AJ  26013.22880614  .00000243  00000+0  63081-3 0  9995
2 48074  87.9004 351.0111 0001696  91.0336 269.0987 13.13469688233333
ONEWEB-0178             
1 48075U 21025AK  26013.17138831  .00000013  00000+0  54629-6 0  9993
2 48075  87.8988 351.0599 0001459  85.0379 275.0917 13.13468401233377
ONEWEB-0108             
1 48076U 21025AL  26013.20679202 -.00000107  00000+0 -32703-3 0  9992
2 48076  87.9000 351.0047 0001961  82.9392 277.1961 13.13470821233305
ONEWEB-0169             
1 48077U 21025AM  26013.16278071  .00000173  00000+0  43994-3 0  9992
2 48077  87.8999 351.0329 0001971  83.9209 276.2145 13.13468418231956
ONEWEB-0176             
1 48210U 21031A   26013.12707151  .00000013  00000+0  17066-5 0  9996
2 48210  87.9021 320.6002 0001619  78.0366 282.0945 13.14503922227948
ONEWEB-0184             
1 48211U 21031B   26013.25234172 -.00000164  00000+0 -47663-3 0  9992
2 48211  87.9038 320.5595 0001087  56.4328 303.6906 13.14503104227938
ONEWEB-0179             
1 48212U 21031C   26013.07075654  .00000145  00000+0  35619-3 0  9996
2 48212  87.9027 320.6017 0001749  87.3001 272.8329 13.14504489227958
ONEWEB-0180             
1 48213U 21031D   26013.25551617 -.00000158  00000+0 -46193-3 0  9990
2 48213  87.9034 320.5642 0001505  85.6174 274.5128 13.14502946227864
ONEWEB-0218             
1 48214U 21031E   26013.12545649 -.00000250  00000+0 -70801-3 0  9991
2 48214  87.9028 320.5906 0000867  69.4449 290.6773 13.14502308228000
